IRIDIUM 166             
1 43570U 18061B   25055.79928676  .00000018  00000+0 -78725-6 0  9990
2 43570  86.3917 256.1960 0002048  79.1340 281.0086 14.34217825344971
IRIDIUM 158             
1 43571U 18061C   25055.83734268  .00000006  00000+0 -48355-5 0  9990
2 43571  86.3918 256.1898 0002132  90.6042 269.5398 14.34217767344943
IRIDIUM 165             
1 43572U 18061D   25055.79294414  .00000082  00000+0  22143-4 0  9999
2 43572  86.3919 256.2457 0001863  85.2907 274.8501 14.34217969344968
IRIDIUM 155             
1 43573U 18061E   25055.82465797 -.00000002  00000+0 -77491-5 0  9999
2 43573  86.3915 256.1252 0002223  85.8427 274.3023 14.34217771344933
IRIDIUM 154             
1 43574U 18061F   25055.80562911  .00000005  00000+0 -53931-5 0  9999
2 43574  86.3918 256.2430 0001907  88.7664 271.3751 14.34217771344989
IRIDIUM 163             
1 43575U 18061G   25055.78660180  .00000035  00000+0  55468-5 0  9993
2 43575  86.3915 256.1814 0002099  92.7545 267.3891 14.34217614344951
IRIDIUM 156             
1 43576U 18061H   25055.83100052 -.00000002  00000+0 -79560-5 0  9992
2 43576  86.3917 256.1696 0002237  81.7141 278.4308 14.34217541344951
IRIDIUM 164             
1 43577U 18061J   25055.95150847 -.00000014  00000+0 -12205-4 0  9998
2 43577  86.3917 256.1518 0001741  85.9493 274.1901 14.34217590345014
